QIANFAN-57              
1 62787U 25016C   25278.53770775  .00000083  00000+0  11049-3 0  9997
2 62787  88.9752 110.2427 0001841  60.0591 300.0742 13.50974201 37999
QIANFAN-58              
1 62788U 25016D   25278.50884564  .00000086  00000+0  11480-3 0  9999
2 62788  88.9722 110.0983 0013839 173.3340 186.7998 13.50973749 38036
QIANFAN-59              
1 62789U 25016E   25278.53351090  .00000091  00000+0  12185-3 0  9995
2 62789  88.9745 110.1532 0014098 177.2337 182.8895 13.50972996 38036
QIANFAN-60              
1 62790U 25016F   25273.45632892  .00000063  00000+0  77135-4 0  9991
2 62790  88.9732 110.6637 0014892 189.3455 170.7422 13.52524324 37336
QIANFAN-61              
1 62791U 25016G   25278.52526131  .00000088  00000+0  11796-3 0  9990
2 62791  88.9794 110.2550 0014701 173.3326 186.8023 13.50973332 38032
QIANFAN-62              
1 62792U 25016H   25278.52945885  .00000087  00000+0  11637-3 0  9995
2 62792  88.9740 110.1599 0016053 174.2925 185.8412 13.50967299 38028
QIANFAN-63              
1 62793U 25016J   25278.55406807  .00000088  00000+0  11804-3 0  9992
2 62793  88.9747 110.1043 0015959 179.5975 180.5191 13.50970176 38065
QIANFAN-64              
1 62794U 25016K   25278.52115725  .00000091  00000+0  12250-3 0  9996
2 62794  88.9733 110.0909 0014123 171.7157 188.4230 13.50971894 38057
